OBJECT_NAME,OBJECT_ID,EPOCH,MEAN_MOTION,ECCENTRICITY,INCLINATION,RA_OF_ASC_NODE,ARG_OF_PERICENTER,MEAN_ANOMALY,EPHEMERIS_TYPE,CLASSIFICATION_TYPE,NORAD_CAT_ID,ELEMENT_SET_NO,REV_AT_EPOCH,BSTAR,MEAN_MOTION_DOT,MEAN_MOTION_DDOT
CINEMA-3 (KHUSAT-2),2013-066L,2026-06-08T04:59:28.988160,14.78280548,.0088556,97.8408,71.6370,240.9757,118.2559,0,U,39426,999,67312,.15157037E-3,.1118E-4,0
TRITON-1,2013-066M,2026-06-08T07:31:58.417248,14.81678206,.00883025,97.8247,69.3225,263.2835,95.8323,0,U,39427,999,67277,.36980477E-3,.3057E-4,0
DELFI-N3XT,2013-066N,2026-06-07T17:46:47.599680,14.94996320,.00728199,97.8346,79.0618,237.5513,121.8652,0,U,39428,999,67321,.58427494E-3,.6673E-4,0
GOMX-1,2013-066Q,2026-06-08T06:22:28.932096,14.69427317,.01301004,97.6493,0.2910,105.8726,255.6865,0,U,39430,999,66860,.357185E-3,.2358E-4,0
BRITE-PL1 (LEM),2013-066R,2026-06-08T05:32:00.262176,14.51362631,.01907731,97.7955,272.2080,39.4613,322.0301,0,U,39431,999,66263,.11449054E-3,.53E-5,0
ICUBE-1,2013-066S,2026-06-08T04:59:18.321216,15.25614789,.00163918,97.5691,144.7645,11.0533,349.1062,0,U,39432,999,68304,.45994859E-3,.11667E-3,0
VELOX-PII,2013-066Y,2026-06-07T18:52:45.731424,14.93050880,.00533249,97.8735,110.1401,15.7622,344.5242,0,U,39438,999,67643,.37159935E-3,.3915E-4,0
CUBEBUG-2 (LO-74),2013-066AA,2026-06-07T18:02:43.454112,14.93689124,.00593101,97.8907,107.6906,59.6684,301.0383,0,U,39440,999,67558,.49259445E-3,.5333E-4,0
NEE-02 KRYSAOR,2013-066AB,2026-06-08T01:19:29.441568,14.86581020,.00676741,97.8887,98.3357,99.4326,261.4548,0,U,39441,999,67484,.3008967E-3,.2722E-4,0
FUNCUBE-1 (AO-73),2013-066AE,2026-06-08T04:09:47.030400,15.09382626,.00347242,97.8275,130.4319,232.3552,127.4524,0,U,39444,999,67830,.33894041E-3,.5422E-4,0
HINCUBE,2013-066AF,2026-06-07T15:57:53.648064,15.08169204,.00316129,97.7963,127.0456,241.7255,118.0781,0,U,39445,999,67809,.50019101E-3,.7755E-4,0
UWE-3,2013-066AG,2026-06-08T03:00:14.958432,14.96953360,.00488677,97.8687,115.1387,351.6421,8.3981,0,U,39446,999,67622,.3951752E-3,.4591E-4,0
CP8 (IPEX),2013-072K,2026-06-08T03:44:10.576608,15.07988939,.01632671,120.4639,264.1403,352.8095,7.0642,0,U,39471,999,11387,.2858754E-3,.5636E-4,0
COSMOS 2488 (RODNIK-S 7),2013-076A,2026-06-08T06:19:49.899936,12.42905012,.00207412,82.4832,174.2549,113.7016,246.6243,0,U,39483,999,56478,-.66377514E-3,-.82E-6,0
COSMOS 2489 (RODNIK-S 8),2013-076B,2026-06-08T05:43:50.933280,12.42878773,.00225653,82.4869,175.6463,113.8097,246.5352,0,U,39484,999,56483,-.95254265E-3,-.122E-5,0
COSMOS 2490 (RODNIK-S 9),2013-076C,2026-06-08T05:03:20.952288,12.42877154,.00225148,82.4815,173.7350,128.8418,231.4676,0,U,39485,999,56476,-.999604E-3,-.128E-5,0
AIST-1 (RS41),2013-078C,2026-06-08T07:57:05.375808,14.96047378,.00155981,82.4156,279.4532,311.3417,48.6462,0,U,39492,999,67392,.15669343E-3,.1788E-4,0
KAZEOSAT 1,2014-024A,2026-06-08T06:42:04.714272,14.42076809,.00014788,98.3200,231.9478,75.5015,284.6338,0,U,39731,999,63727,.74460792E-4,.202E-5,0
COSMOS 2496 (RODNIK-S 10),2014-028A,2026-06-08T05:58:07.565088,12.42878201,.00212374,82.4446,114.3297,97.3033,263.0461,0,U,39761,999,54640,.33829505E-3,.57E-6,0
COSMOS 2497 (RODNIK-S 11),2014-028B,2026-06-08T07:18:36.543168,12.42893858,.00218239,82.4494,115.9809,92.4447,267.9131,0,U,39762,999,54641,.31895226E-3,.54E-6,0
COSMOS 2498 (RODNIK-S 12),2014-028C,2026-06-08T06:47:14.435808,12.42979957,.00225352,82.4454,114.4855,92.1584,268.2076,0,U,39763,999,54644,.35345746E-3,.59E-6,0
COSMOS 2499 (RS47),2014-028E,2026-06-08T07:27:04.023936,12.82902550,.0231749,82.4496,258.4175,22.7667,338.3514,0,U,39765,999,56388,-.40671585E-4,.1E-7,0
HODOYOSHI-4,2014-033B,2026-06-08T07:01:39.178848,14.88109113,.0023285,97.5459,344.5448,339.1283,20.8982,0,U,40011,999,64748,.13293672E-3,.1176E-4,0
UNISAT-6,2014-033C,2026-06-07T22:07:42.273984,14.88198016,.004645,97.7873,311.7985,98.9247,261.7232,0,U,40012,999,64478,.37971274E-3,.3516E-4,0
DEIMOS-2,2014-033D,2026-06-08T06:34:02.606592,14.93704094,.00020455,97.5837,34.0750,59.4926,300.6497,0,U,40013,999,63639,.21980766E-3,.2271E-4,0
BUGSAT-1 (TITA),2014-033E,2026-06-08T06:07:06.866976,15.15491768,.00274076,98.0419,251.2821,209.1501,150.8201,0,U,40014,999,65448,.34912462E-3,.6597E-4,0
SAUDISAT 4,2014-033G,2026-06-08T04:36:03.531456,14.79532398,.00462182,97.7573,305.6384,102.3417,258.2975,0,U,40016,999,64474,.10947114E-3,.782E-5,0
APRIZESAT 9,2014-033J,2026-06-08T07:35:05.660736,14.74202863,.00651075,97.9049,292.7321,228.0087,131.5566,0,U,40018,999,64225,.10756749E-3,.681E-5,0
BRITE-CA1 (TORONTO),2014-033L,2026-06-07T22:23:48.661440,14.72664620,.00774803,97.9728,288.0323,307.1538,52.2610,0,U,40020,999,64085,.12745632E-3,.797E-5,0
