[
  {
    "name": "UNISAT 6",
    "tle1": "1 40012U 14033C   26158.92201706  .00003516  00000-0  37971-3 0  9992",
    "tle2": "2 40012  97.7873 311.7985 0046450  98.9247 261.7232 14.88198016644780",
    "norad_id": "40012"
  },
  {
    "name": "AIST 1",
    "tle1": "1 39492U 13078C   26159.33131222  .00001788  00000-0  15669-3 0  9990",
    "tle2": "2 39492  82.4156 279.4532 0015598 311.3417  48.6462 14.96047378673921",
    "norad_id": "39492"
  },
  {
    "name": "HINCUBE",
    "tle1": "1 39445U 13066AF  26158.66520426  .00007755  00000-0  50019-3 0  9996",
    "tle2": "2 39445  97.7963 127.0456 0031613 241.7255 118.0781 15.08169204678095",
    "norad_id": "39445"
  },
  {
    "name": "FUNCUBE 1",
    "tle1": "1 39444U 13066AE  26159.17346100  .00005422  00000-0  33894-3 0  9998",
    "tle2": "2 39444  97.8275 130.4319 0034724 232.3552 127.4524 15.09382626678308",
    "norad_id": "39444"
  },
  {
    "name": "BUGSAT 1",
    "tle1": "1 40014U 14033E   26159.25494059  .00006597  00000-0  34912-3 0  9990",
    "tle2": "2 40014  98.0419 251.2821 0027408 209.1501 150.8201 15.15491768654483",
    "norad_id": "40014"
  },
  {
    "name": "UWE-3",
    "tle1": "1 39446U 13066AG  26159.12517313  .00004591  00000-0  39518-3 0  9996",
    "tle2": "2 39446  97.8687 115.1387 0048868 351.6421   8.3981 14.96953360676223",
    "norad_id": "39446"
  },
  {
    "name": "CUBEBUG-2",
    "tle1": "1 39440U 13066AA  26158.75189183  .00005333  00000-0  49259-3 0  9996",
    "tle2": "2 39440  97.8907 107.6906 0059310  59.6684 301.0383 14.93689124675583",
    "norad_id": "39440"
  },
  {
    "name": "GOMX 1",
    "tle1": "1 39430U 13066Q   26159.26561264  .00002358  00000-0  35719-3 0  9996",
    "tle2": "2 39430  97.6493   0.2910 0130100 105.8726 255.6865 14.69427317668602",
    "norad_id": "39430"
  },
  {
    "name": "NEE 02 KRYSAOR",
    "tle1": "1 39441U 13066AB  26159.05520187  .00002722  00000-0  30090-3 0  9996",
    "tle2": "2 39441  97.8887  98.3357 0067674  99.4326 261.4548 14.86581020674842",
    "norad_id": "39441"
  },
  {
    "name": "VELOX-P 2",
    "tle1": "1 39438U 13066Y   26158.78664041  .00003915  00000-0  37160-3 0  9999",
    "tle2": "2 39438  97.8735 110.1401 0053325  15.7622 344.5242 14.93050880676435",
    "norad_id": "39438"
  },
  {
    "name": "ICUBE 1",
    "tle1": "1 39432U 13066S   26159.20785094  .00011667  00000-0  45995-3 0  9991",
    "tle2": "2 39432  97.5691 144.7645 0016392  11.0533 349.1062 15.25614789683049",
    "norad_id": "39432"
  },
  {
    "name": "BRITE-PL",
    "tle1": "1 39431U 13066R   26159.23055859  .00000530  00000-0  11449-3 0  9996",
    "tle2": "2 39431  97.7955 272.2080 0190773  39.4613 322.0301 14.51362631662634",
    "norad_id": "39431"
  },
  {
    "name": "DELFI-N3XT",
    "tle1": "1 39428U 13066N   26158.74082870  .00006673  00000-0  58427-3 0  9991",
    "tle2": "2 39428  97.8346  79.0618 0072820 237.5513 121.8652 14.94996320673212",
    "norad_id": "39428"
  },
  {
    "name": "CINEMA 3",
    "tle1": "1 39426U 13066L   26159.20797440  .00001118  00000-0  15157-3 0  9999",
    "tle2": "2 39426  97.8408  71.6370 0088556 240.9757 118.2559 14.78280548673129",
    "norad_id": "39426"
  },
  {
    "name": "TRITON 1",
    "tle1": "1 39427U 13066M   26159.31387057  .00003057  00000-0  36980-3 0  9992",
    "tle2": "2 39427  97.8247  69.3225 0088302 263.2835  95.8323 14.81678206672773",
    "norad_id": "39427"
  },
  {
    "name": "IPEX",
    "tle1": "1 39471U 13072K   26159.15567797  .00005636  00000-0  28588-3 0  9991",
    "tle2": "2 39471 120.4639 264.1403 0163267 352.8095   7.0642 15.07988939113876",
    "norad_id": "39471"
  },
  {
    "name": "KAZEOSAT 1",
    "tle1": "1 39731U 14024A   26159.27922123  .00000202  00000-0  74461-4 0  9995",
    "tle2": "2 39731  98.3200 231.9478 0001479  75.5015 284.6338 14.42076809637275",
    "norad_id": "39731"
  },
  {
    "name": "BRITE TORONTO",
    "tle1": "1 40020U 14033L   26158.93320210  .00000797  00000-0  12746-3 0  9995",
    "tle2": "2 40020  97.9728 288.0323 0077480 307.1538  52.2610 14.72664620640856",
    "norad_id": "40020"
  },
  {
    "name": "COSMOS 2499",
    "tle1": "1 39765U 14028E   26159.31046324  .00000001  00000-0 -40672-4 0  9996",
    "tle2": "2 39765  82.4496 258.4175 0231749  22.7667 338.3514 12.82902550563884",
    "norad_id": "39765"
  },
  {
    "name": "SAUDISAT 4",
    "tle1": "1 40016U 14033G   26159.19170754  .00000782  00000-0  10947-3 0  9990",
    "tle2": "2 40016  97.7573 305.6384 0046218 102.3417 258.2975 14.79532398644743",
    "norad_id": "40016"
  },
  {
    "name": "APRIZESAT 9",
    "tle1": "1 40018U 14033J   26159.31603774  .00000681  00000-0  10757-3 0  9996",
    "tle2": "2 40018  97.9049 292.7321 0065108 228.0087 131.5566 14.74202863642259",
    "norad_id": "40018"
  },
  {
    "name": "HODOYOSHI 4",
    "tle1": "1 40011U 14033B   26159.29281457  .00001176  00000-0  13294-3 0  9995",
    "tle2": "2 40011  97.5459 344.5448 0023285 339.1283  20.8982 14.88109113647482",
    "norad_id": "40011"
  },
  {
    "name": "COSMOS 2488",
    "tle1": "1 39483U 13076A   26159.26377199 -.00000082  00000-0 -66378-3 0  9996",
    "tle2": "2 39483  82.4832 174.2549 0020741 113.7016 246.6243 12.42905012564784",
    "norad_id": "39483"
  },
  {
    "name": "COSMOS 2489",
    "tle1": "1 39484U 13076B   26159.23878395 -.00000122  00000-0 -95254-3 0  9998",
    "tle2": "2 39484  82.4869 175.6463 0022565 113.8097 246.5352 12.42878773564830",
    "norad_id": "39484"
  },
  {
    "name": "COSMOS 2490",
    "tle1": "1 39485U 13076C   26159.21065917 -.00000128  00000-0 -99960-3 0  9999",
    "tle2": "2 39485  82.4815 173.7350 0022515 128.8418 231.4676 12.42877154564760",
    "norad_id": "39485"
  },
  {
    "name": "COSMOS 2498",
    "tle1": "1 39763U 14028C   26159.28280597  .00000059  00000-0  35346-3 0  9995",
    "tle2": "2 39763  82.4454 114.4855 0022535  92.1584 268.2076 12.42979957546440",
    "norad_id": "39763"
  },
  {
    "name": "COSMOS 2497",
    "tle1": "1 39762U 14028B   26159.30458962  .00000054  00000-0  31895-3 0  9990",
    "tle2": "2 39762  82.4494 115.9809 0021824  92.4447 267.9131 12.42893858546419",
    "norad_id": "39762"
  },
  {
    "name": "COSMOS 2496",
    "tle1": "1 39761U 14028A   26159.24869867  .00000057  00000-0  33830-3 0  9996",
    "tle2": "2 39761  82.4446 114.3297 0021237  97.3033 263.0461 12.42878201546409",
    "norad_id": "39761"
  },
  {
    "name": "DEIMOS 2",
    "tle1": "1 40013U 14033D   26159.27364128  .00002271  00000-0  21981-3 0  9991",
    "tle2": "2 40013  97.5837  34.0750 0002046  59.4926 300.6497 14.93704094636392",
    "norad_id": "40013"
  }
]